0 COSMOS 1091
1 11320U 79028A   13282.74160765  .00000057  00000-0  43937-4 0  1270
2 11320 082.9241 333.2440 0031951 116.3760 023.0532 13.74530035730799
0 COSMOS 1091
1 11320U 79028A   13283.76051259  .00000067  00000-0  54694-4 0  1284
2 11320 082.9239 332.4878 0031958 113.6538 024.7922 13.74530022730935
0 COSMOS 1091
1 11320U 79028A   13286.14522623  .00000073  00000-0  61070-4 0  1303
2 11320 082.9233 330.7181 0031980 107.3023 304.7970 13.74530143731266
0 COSMOS 1091
1 11320U 79028A   13287.15889663  .00000081  00000-0  69007-4 0  1313
2 11320 082.9231 329.9658 0031972 104.5990 280.6298 13.74530342731408
0 COSMOS 1091
1 11320U 79028A   13288.18466574  .00000075  00000-0  62986-4 0  1322
2 11320 082.9228 329.2044 0031980 101.8689 316.3241 13.74530502731548
0 COSMOS 1091
1 11320U 79028A   13289.51240633  .00000062  00000-0  48467-4 0  1331
2 11320 082.9225 328.2188 0031954 098.3244 046.2406 13.74530764731723
0 COSMOS 1091
1 11320U 79028A   13290.67180127  .00000056  00000-0  42577-4 0  1341
2 11320 082.9224 327.3580 0031944 095.2247 023.1557 13.74531002731880
0 COSMOS 1091
1 11320U 79028A   13292.18915012  .00000052  00000-0  38280-4 0  1351
2 11320 082.9223 326.2314 0031926 091.1894 331.2779 13.74531235732096
0 COSMOS 1091
1 11320U 79028A   13293.20878977  .00000053  00000-0  39562-4 0  1369
2 11320 082.9223 325.4743 0031924 088.4973 336.6246 13.74531330732238
0 COSMOS 1091
1 11320U 79028A   13294.53901473  .00000062  00000-0  49276-4 0  1378
2 11320 082.9222 324.4867 0031891 084.9372 078.8476 13.74531324732413
0 COSMOS 1091
1 11320U 79028A   13295.69756527  .00000061  00000-0  47834-4 0  1382
2 11320 082.9222 323.6266 0031859 081.8343 051.5926 13.74531319732574
